OBJECT_NAME,OBJECT_ID,EPOCH,MEAN_MOTION,ECCENTRICITY,INCLINATION,RA_OF_ASC_NODE,ARG_OF_PERICENTER,MEAN_ANOMALY,EPHEMERIS_TYPE,CLASSIFICATION_TYPE,NORAD_CAT_ID,ELEMENT_SET_NO,REV_AT_EPOCH,BSTAR,MEAN_MOTION_DOT,MEAN_MOTION_DDOT
GOES 16,2016-071A,2026-07-15T16:17:38.256864,1.00270998,.0000533,0.4052,85.4652,94.4235,253.3464,0,U,41866,999,3538,0,-.101E-5,0
TIANLIAN 1-04,2016-072A,2026-07-15T19:20:26.522592,1.00271279,.004411,0.9396,82.7213,90.5846,227.2257,0,U,41869,999,3558,0,.2E-6,0
WGS F8 (USA 272),2016-075A,2026-07-15T14:34:38.602272,1.00269770,.00002,0.0170,47.4138,315.6362,298.8780,0,U,41879,999,3510,0,-.213E-5,0
FENGYUN 4A,2016-077A,2026-07-15T20:48:04.728096,1.00267758,.0008499,2.3930,79.9483,159.6393,129.8761,0,U,41882,999,3521,0,-.369E-5,0
ECHOSTAR 19,2016-079A,2026-07-14T19:48:00.948672,1.00271542,.00012489,0.0166,50.3681,71.5406,10.6711,0,U,41893,999,3498,0,-.147E-5,0
JCSAT-110A (JCSAT-15),2016-082A,2026-07-15T19:01:28.339968,1.00290272,.0001474,0.0178,36.6311,78.9257,213.5184,0,U,41903,999,3504,0,-.363E-5,0
STAR ONE D1,2016-082B,2026-07-15T12:58:11.532000,1.00270887,.0002257,0.0125,304.6948,169.6586,289.5903,0,U,41904,999,3505,0,-.221E-5,0
TJS-2,2017-001A,2026-07-15T18:49:03.444096,1.00270736,.0000811,0.9050,84.9390,106.8182,90.6629,0,U,41911,999,3500,0,-.17E-6,0
SBIRS GEO-4 (USA 273),2017-004A,2026-07-15T20:18:53.045856,1.00282649,.0002587,2.2974,44.0094,65.0083,151.0658,0,U,41937,999,3488,0,.116E-5,0
HISPASAT 36W-1,2017-006A,2026-07-14T01:16:08.842368,1.00270272,.00010356,0.0090,302.2762,169.9893,162.6895,0,U,41942,999,3451,0,-.251E-5,0
TELKOM 3S,2017-007A,2026-07-14T05:25:16.851936,1.00270767,.00019737,0.0183,79.6116,31.8917,19.9065,0,U,41944,999,3441,0,-.369E-5,0
INTELSAT 32E (IS-32E),2017-007B,2026-07-15T16:34:59.095200,1.00266215,.0000271,0.0237,56.8760,287.4334,154.7924,0,U,41945,999,3451,0,0,0
ECHOSTAR 23,2017-014A,2026-07-15T14:33:28.570752,1.00270648,.0002117,0.0185,37.5191,71.8163,292.5782,0,U,42070,999,3420,0,-.67E-6,0
WGS F9 (USA 275),2017-016A,2026-07-15T15:01:25.891104,1.00270580,.0000503,0.0237,45.0052,197.3265,264.5358,0,U,42075,999,3418,0,0,0
SES-10,2017-017A,2026-07-15T18:10:53.270400,1.00272033,.0002489,0.0194,50.3382,66.1891,22.8827,0,U,42432,999,3404,0,-.283E-5,0
CHINASAT 16 (SJ-13),2017-018A,2026-07-15T15:36:22.540032,1.00267140,.0004948,0.0871,88.8927,135.1076,54.0953,0,U,42662,999,3403,0,-.362E-5,0
KOREASAT 7,2017-023A,2026-07-15T19:03:13.173408,1.00269495,.0000763,0.0240,341.9118,137.7840,215.6271,0,U,42691,999,3365,0,-.372E-5,0
SGDC,2017-023B,2026-07-14T09:30:23.560992,1.00270708,.00022133,0.0206,64.8434,56.8675,238.2940,0,U,42692,999,3368,0,-.257E-5,0
GSAT-9,2017-024A,2026-07-15T18:57:51.188256,1.00267346,.0002327,0.0872,91.1301,34.2522,189.9608,0,U,42695,999,3358,0,-.295E-5,0
INMARSAT 5-F4,2017-025A,2026-07-14T01:42:36.304992,1.00272708,.00004367,0.0033,109.2613,82.2635,182.5773,0,U,42698,999,3354,0,.69E-6,0
SES-15,2017-026A,2026-07-15T16:10:38.928288,1.00269334,.0000327,0.0292,321.8383,153.3137,291.8762,0,U,42709,999,771,0,.5E-6,0
QZS-2 (MICHIBIKI-2),2017-028A,2026-07-15T10:39:52.556256,1.00276676,.07575002,39.3862,242.7372,269.6033,83.3491,0,U,42738,999,791,0,-.133E-5,0
VIASAT-2,2017-029A,2026-07-15T18:10:00.854112,1.00268207,.0000398,0.0175,313.9360,243.7633,298.5063,0,U,42740,999,3349,0,-.275E-5,0
EUTELSAT 172B,2017-029B,2026-07-15T17:36:34.060320,1.00269980,.0000141,0.0246,125.5649,182.1773,61.9651,0,U,42741,999,3402,0,-.16E-6,0
GSAT-19,2017-031A,2026-07-15T03:19:53.006880,1.00269759,.00062304,0.0389,88.1289,1.6920,301.0162,0,U,42747,999,3342,0,.116E-5,0
ECHOSTAR 21,2017-032A,2026-07-14T13:27:59.078016,1.00273285,.0001958,1.7704,357.4644,111.2018,36.0243,0,U,42749,999,3337,0,.6E-6,0
BULGARIASAT-1,2017-038A,2026-07-15T18:30:38.261088,1.00271868,.0003183,0.0372,72.9326,56.6615,83.5511,0,U,42801,999,3313,0,0,0
HELLAS-SAT 3,2017-040A,2026-07-15T20:23:49.846272,1.00271669,.0003204,0.0514,50.3915,26.4516,201.7880,0,U,42814,999,3309,0,.142E-5,0
GSAT-17,2017-040B,2026-07-15T18:56:51.282816,1.00270371,.0002227,0.0738,88.4259,166.6560,56.2489,0,U,42815,999,3307,0,-.268E-5,0
INTELSAT 35E (IS-35E),2017-041A,2026-07-15T13:14:38.726304,1.00266637,.0001683,0.0261,63.1048,46.6502,347.7991,0,U,42818,999,3310,0,0,0
COSMOS 2520,2017-046A,2026-07-13T22:14:00.515040,1.00269251,.00010153,0.0371,107.3958,352.7379,210.1305,0,U,42907,999,3266,0,.132E-5,0
TDRS 13,2017-047A,2026-07-15T18:48:42.335712,1.00271674,.0014769,3.4596,3.4335,111.3630,89.6004,0,U,42915,999,3263,0,-.11E-5,0
