GOES 16                 
1 41866U 16071A   26196.67891501 -.00000101  00000+0  00000+0 0  9992
2 41866   0.4052  85.4652 0000533  94.4235 253.3464  1.00270998 35388
TIANLIAN 1-04           
1 41869U 16072A   26196.80586253  .00000020  00000+0  00000+0 0  9995
2 41869   0.9396  82.7213 0044110  90.5846 227.2257  1.00271279 35589
WGS F8 (USA 272)        
1 41879U 16075A   26196.60739123 -.00000213  00000+0  00000+0 0  9998
2 41879   0.0170  47.4138 0000200 315.6362 298.8780  1.00269770 35107
FENGYUN 4A              
1 41882U 16077A   26196.86672139 -.00000369  00000+0  00000+0 0  9997
2 41882   2.3930  79.9483 0008499 159.6393 129.8761  1.00267758 35219
ECHOSTAR 19             
1 41893U 16079A   26195.82501098 -.00000147  00000+0  00000+0 0  9995
2 41893   0.0166  50.3681 0001248  71.5406  10.6711  1.00271542 34983
JCSAT-110A (JCSAT-15)   
1 41903U 16082A   26196.79268912 -.00000363  00000+0  00000+0 0  9993
2 41903   0.0178  36.6311 0001474  78.9257 213.5184  1.00290272 35048
STAR ONE D1             
1 41904U 16082B   26196.54041125 -.00000221  00000+0  00000+0 0  9995
2 41904   0.0125 304.6948 0002257 169.6586 289.5903  1.00270887 35051
TJS-2                   
1 41911U 17001A   26196.78406764 -.00000017  00000+0  00000+0 0  9998
2 41911   0.9050  84.9390 0000811 106.8182  90.6629  1.00270736 35007
SBIRS GEO-4 (USA 273)   
1 41937U 17004A   26196.84644729  .00000116  00000+0  00000+0 0  9990
2 41937   2.2974  44.0094 0002587  65.0083 151.0658  1.00282649 34886
HISPASAT 36W-1          
1 41942U 17006A   26195.05288012 -.00000251  00000+0  00000+0 0  9990
2 41942   0.0090 302.2762 0001035 169.9893 162.6895  1.00270272 34518
TELKOM 3S               
1 41944U 17007A   26195.22588949 -.00000369  00000+0  00000+0 0  9994
2 41944   0.0183  79.6116 0001973  31.8917  19.9065  1.00270767 34417
INTELSAT 32E (IS-32E)   
1 41945U 17007B   26196.69096175  .00000000  00000+0  00000+0 0  9993
2 41945   0.0237  56.8760 0000271 287.4334 154.7924  1.00266215 34518
ECHOSTAR 23             
1 42070U 17014A   26196.60658068 -.00000067  00000+0  00000+0 0  9991
2 42070   0.0185  37.5191 0002117  71.8163 292.5782  1.00270648 34204
WGS F9 (USA 275)        
1 42075U 17016A   26196.62599411  .00000000  00000+0  00000+0 0  9992
2 42075   0.0237  45.0052 0000503 197.3265 264.5358  1.00270580 34181
SES-10                  
1 42432U 17017A   26196.75756100 -.00000283  00000+0  00000+0 0  9998
2 42432   0.0194  50.3382 0002489  66.1891  22.8827  1.00272033 34044
CHINASAT 16 (SJ-13)     
1 42662U 17018A   26196.65026088 -.00000362  00000+0  00000+0 0  9996
2 42662   0.0871  88.8927 0004948 135.1076  54.0953  1.00267140 34035
KOREASAT 7              
1 42691U 17023A   26196.79390247 -.00000372  00000+0  00000+0 0  9991
2 42691   0.0240 341.9118 0000763 137.7840 215.6271  1.00269495 33650
SGDC                    
1 42692U 17023B   26195.39610603 -.00000257  00000+0  00000+0 0  9990
2 42692   0.0206  64.8434 0002213  56.8675 238.2940  1.00270708 33680
GSAT-9                  
1 42695U 17024A   26196.79017579 -.00000295  00000+0  00000+0 0  9994
2 42695   0.0872  91.1301 0002327  34.2522 189.9608  1.00267346 33581
INMARSAT 5-F4           
1 42698U 17025A   26195.07125353  .00000069  00000+0  00000+0 0  9996
2 42698   0.0033 109.2613 0000436  82.2635 182.5773  1.00272708 33543
SES-15                  
1 42709U 17026A   26196.67406167  .00000050  00000+0  00000+0 0  9992
2 42709   0.0292 321.8383 0000327 153.3137 291.8762  1.00269334  7718
QZS-2 (MICHIBIKI-2)     
1 42738U 17028A   26196.44435829 -.00000133  00000+0  00000+0 0  9991
2 42738  39.3862 242.7372 0757500 269.6033  83.3491  1.00276676  7917
VIASAT-2                
1 42740U 17029A   26196.75695433 -.00000275  00000+0  00000+0 0  9995
2 42740   0.0175 313.9360 0000398 243.7633 298.5063  1.00268207 33493
EUTELSAT 172B           
1 42741U 17029B   26196.73372755 -.00000016  00000+0  00000+0 0  9996
2 42741   0.0246 125.5649 0000141 182.1773  61.9651  1.00269980 34021
GSAT-19                 
1 42747U 17031A   26196.13880795  .00000116  00000+0  00000+0 0  9997
2 42747   0.0389  88.1289 0006230   1.6920 301.0162  1.00269759 33425
ECHOSTAR 21             
1 42749U 17032A   26195.56110044  .00000060  00000+0  00000+0 0  9997
2 42749   1.7704 357.4644 0001958 111.2018  36.0243  1.00273285 33379
BULGARIASAT-1           
1 42801U 17038A   26196.77127617  .00000000  00000+0  00000+0 0  9994
2 42801   0.0372  72.9326 0003183  56.6615  83.5511  1.00271868 33138
HELLAS-SAT 3            
1 42814U 17040A   26196.84988248  .00000142  00000+0  00000+0 0  9991
2 42814   0.0514  50.3915 0003204  26.4516 201.7880  1.00271669 33090
GSAT-17                 
1 42815U 17040B   26196.78948244 -.00000268  00000+0  00000+0 0  9997
2 42815   0.0738  88.4259 0002227 166.6560  56.2489  1.00270371 33077
INTELSAT 35E (IS-35E)   
1 42818U 17041A   26196.55183711  .00000000  00000+0  00000+0 0  9999
2 42818   0.0261  63.1048 0001683  46.6502 347.7991  1.00266637 33105
COSMOS 2520             
1 42907U 17046A   26194.92639485  .00000132  00000+0  00000+0 0  9992
2 42907   0.0371 107.3958 0001015 352.7379 210.1305  1.00269251 32666
TDRS 13                 
1 42915U 17047A   26196.78382333 -.00000110  00000+0  00000+0 0  9992
2 42915   3.4596   3.4335 0014769 111.3630  89.6004  1.00271674 32639
